[{"OBJECT_NAME":"SATELIOT_1","OBJECT_ID":"2024-149CL","EPOCH":"2026-03-09T18:08:18.068352","MEAN_MOTION":14.97604186,"ECCENTRICITY":0.00077489,"INCLINATION":97.6798,"RA_OF_ASC_NODE":146.3176,"ARG_OF_PERICENTER":58.9869,"MEAN_ANOMALY":301.2113,"EPHEMERIS_TYPE":0,"CLASSIFICATION_TYPE":"U","NORAD_CAT_ID":60550,"ELEMENT_SET_NO":999,"REV_AT_EPOCH":8518,"BSTAR":0.00029754021,"MEAN_MOTION_DOT":3.421e-5,"MEAN_MOTION_DDOT":0},{"OBJECT_NAME":"STARLINK-35840","OBJECT_ID":"2025-280P","EPOCH":"2026-03-09T23:27:17.172576","MEAN_MOTION":14.98341894,"ECCENTRICITY":0.00027132,"INCLINATION":70.0018,"RA_OF_ASC_NODE":333.5414,"ARG_OF_PERICENTER":269.2016,"MEAN_ANOMALY":90.8832,"EPHEMERIS_TYPE":0,"CLASSIFICATION_TYPE":"U","NORAD_CAT_ID":66834,"ELEMENT_SET_NO":999,"REV_AT_EPOCH":1612,"BSTAR":0.0005359238,"MEAN_MOTION_DOT":6.309e-5,"MEAN_MOTION_DDOT":0}]
